BEIDOU-2 IGSO-1 (C06)   
1 36828U 10036A   26132.68902604 -.00000041  00000+0  00000+0 0  9990
2 36828  54.2951 163.2807 0058855 224.5644 197.8413  1.00282752 57743
BEIDOU-2 G4 (C04)       
1 37210U 10057A   26140.69610310 -.00000118  00000+0  00000+0 0  9994
2 37210   3.5802  69.0966 0005768 208.2406  11.5955  1.00271619 57013
BEIDOU-2 IGSO-2 (C07)   
1 37256U 10068A   26137.67739373 -.00000224  00000+0  00000+0 0  9999
2 37256  47.6069 272.2104 0054652 211.9480 101.4506  1.00292865 56485
BEIDOU-2 IGSO-3 (C08)   
1 37384U 11013A   26134.75077336 -.00000206  00000+0  00000+0 0  9992
2 37384  62.3634  40.4703 0033942 185.9417  24.6219  1.00276202 55324
BEIDOU-2 IGSO-4 (C09)   
1 37763U 11038A   26140.54024924  .00000018  00000+0  00000+0 0  9999
2 37763  54.5938 165.9188 0158481 231.3601 127.4243  1.00290213 54373
BEIDOU-2 IGSO-5 (C10)   
1 37948U 11073A   26139.85233103 -.00000183  00000+0  00000+0 0  9990
2 37948  47.7316 271.8942 0112098 220.6126 144.0394  1.00254913 52854
BEIDOU-2 G5 (C05)       
1 38091U 12008A   26140.96115329  .00000051  00000+0  00000+0 0  9995
2 38091   3.5074  69.8488 0010890 270.2637 303.1965  1.00273214 52093
BEIDOU-2 M3 (C11)       
1 38250U 12018A   26140.26686485 -.00000058  00000+0  00000+0 0  9990
2 38250  55.7826 305.8159 0019760 275.9345  83.8176  1.86229710 95421
BEIDOU-2 M4 (C12)       
1 38251U 12018B   26140.19912060 -.00000057  00000+0  00000+0 0  9993
2 38251  55.6827 305.0343 0011032 279.8130  80.0393  1.86229401 95425
BEIDOU-2 M6 (C14)       
1 38775U 12050B   26139.90895852 -.00000041  00000+0  00000+0 0  9999
2 38775  56.5208  63.8292 0014259 352.6403   7.3328  1.86230903 92783
BEIDOU-2 G6 (C02)       
1 38953U 12059A   26140.89491543 -.00000181  00000+0  00000+0 0  9990
2 38953   4.3541  73.8023 0010217 320.5265 250.4343  1.00269978 49639
BEIDOU-3S IGSO-1S (C31) 
1 40549U 15019A   26140.89682209 -.00000181  00000+0  00000+0 0  9994
2 40549  49.2479 295.7871 0038055 189.9858 169.2061  1.00255240 40791
BEIDOU-3S M2S (C58)     
1 40748U 15037A   26140.40194611 -.00000058  00000+0  00000+0 0  9990
2 40748  54.8960 303.0022 0007623 265.0164  94.8728  1.86231852 73609
BEIDOU-3S M1S (C57)     
1 40749U 15037B   26140.07585329 -.00000057  00000+0  00000+0 0  9993
2 40749  54.8932 303.0013 0004000  57.4653 302.5491  1.86254754 73603
BEIDOU-3S IGSO-2S (C56) 
1 40938U 15053A   26140.79330653 -.00000157  00000+0  00000+0 0  9999
2 40938  49.2659 259.1076 0064729 191.0945 170.1484  1.00265106 39084
BEIDOU-2 IGSO-6 (C13)   
1 41434U 16021A   26140.68849446 -.00000169  00000+0  00000+0 0  9993
2 41434  60.1892  38.3127 0057369 232.4301 309.7522  1.00263960 37200
BEIDOU-2 G7 (C03)       
1 41586U 16037A   26140.97138000 -.00000359  00000+0  00000+0 0  9998
2 41586   1.6542  69.0612 0007282 359.4821 270.2306  1.00265083  6617
BEIDOU-3 M1 (C19)       
1 43001U 17069A   26139.13738663 -.00000041  00000+0  00000+0 0  9993
2 43001  56.6686  64.0415 0011467 321.8797  38.0304  1.86230751 58063
BEIDOU-3 M2 (C20)       
1 43002U 17069B   26140.68693628 -.00000042  00000+0  00000+0 0  9998
2 43002  56.6686  64.0265 0009802 344.8357  15.1308  1.86230581 58087
BEIDOU-3 M7 (C27)       
1 43107U 18003A   26140.42858385 -.00000060  00000+0  00000+0 0  9998
2 43107  54.3536 303.2827 0005157  86.7095 273.3263  1.86227939 56836
BEIDOU-3 M8 (C28)       
1 43108U 18003B   26140.37378898 -.00000060  00000+0  00000+0 0  9999
2 43108  54.3473 303.2667 0002128 274.9884  84.9638  1.86230797 56840
BEIDOU-3 M4 (C22)       
1 43207U 18018A   26138.13174855 -.00000043  00000+0  00000+0 0  9994
2 43207  56.6264  64.1398 0007886   9.7385 350.2635  1.86230951 56188
BEIDOU-3 M3 (C21)       
1 43208U 18018B   26139.27212872 -.00000041  00000+0  00000+0 0  9991
2 43208  56.6270  64.1059 0009514 335.4256  24.5205  1.86230642 56200
BEIDOU-3 M9 (C29)       
1 43245U 18029A   26140.56372123 -.00000058  00000+0  00000+0 0  9992
2 43245  54.2193 300.9137 0000951 119.7583 240.2270  1.86227997 55385
BEIDOU-3 M10 (C30)      
1 43246U 18029B   26140.49822240 -.00000058  00000+0  00000+0 0  9995
2 43246  54.2177 300.9434 0004441  38.1071 321.8999  1.86229034 55368
BEIDOU-2 IGSO-7 (C16)   
1 43539U 18057A   26140.97181334 -.00000042  00000+0  00000+0 0  9999
2 43539  55.1882 163.2953 0104342 238.0207 298.9139  1.00259367 28857
BEIDOU-3 M5 (C23)       
1 43581U 18062A   26140.18545609  .00000042  00000+0  00000+0 0  9993
2 43581  54.0834 183.2565 0005188 287.6308  72.3870  1.86228820 53117
BEIDOU-3 M6 (C24)       
1 43582U 18062B   26137.36403050  .00000082  00000+0  00000+0 0  9997
2 43582  54.0833 183.3416 0004738  15.5717 344.5351  1.86227445 53069
BEIDOU-3 M12 (C26)      
1 43602U 18067A   26137.30242253  .00000084  00000+0  00000+0 0  9997
2 43602  54.1786 182.0879 0007743  31.4775 328.6606  1.86227757 52543
BEIDOU-3 M11 (C25)      
1 43603U 18067B   26140.12216785  .00000044  00000+0  00000+0 0  9999
2 43603  54.1757 181.9561 0004377  15.9012 344.1863  1.86227273 52629
BEIDOU-3 M13 (C32)      
1 43622U 18072A   26140.61412353 -.00000042  00000+0  00000+0 0  9998
2 43622  56.6015  63.5700 0008183 323.4763  36.4643  1.86231134 52148
